{
  "norad_id": 64304,
  "name": "STARLINK-34360",
  "history": [
    {
      "epoch": "2026-04-13T06:10:11.834688Z",
      "apogee_km": 574.3259848016996,
      "perigee_km": 569.7474883509931,
      "latitude_deg": -6.581658578835998e-05,
      "longitude_deg": 173.40860484592665,
      "height_km": 574.4040248157028,
      "semi_major_axis_km": 6950.1737365763465,
      "eccentricity": 0.00032938,
      "inclination_deg": 70.0001,
      "raan_deg": 107.4084,
      "arg_perigee_deg": 271.5134,
      "mean_anomaly_deg": 88.5647,
      "mean_motion_rev_day": 14.98336194
    },
    {
      "epoch": "2026-04-14T17:25:09.795648Z",
      "apogee_km": 574.1921237459164,
      "perigee_km": 569.9108076510465,
      "latitude_deg": -3.571465480719822e-05,
      "longitude_deg": -0.48632952101799376,
      "height_km": 574.390989761772,
      "semi_major_axis_km": 6950.188465698481,
      "eccentricity": 0.000308,
      "inclination_deg": 70.0032,
      "raan_deg": 103.7026,
      "arg_perigee_deg": 272.3621,
      "mean_anomaly_deg": 87.7185,
      "mean_motion_rev_day": 14.98331431
    },
    {
      "epoch": "2026-04-15T17:27:10.696032Z",
      "apogee_km": 574.1163967957236,
      "perigee_km": 569.9810362943799,
      "latitude_deg": 3.478899399313844e-05,
      "longitude_deg": -4.500677934435215,
      "height_km": 574.2796582753807,
      "semi_major_axis_km": 6950.185716545051,
      "eccentricity": 0.0002975,
      "inclination_deg": 70.0034,
      "raan_deg": 101.179,
      "arg_perigee_deg": 275.4585,
      "mean_anomaly_deg": 84.6235,
      "mean_motion_rev_day": 14.9833232
    },
    {
      "epoch": "2026-04-16T09:28:31.440576Z",
      "apogee_km": 574.3146968135798,
      "perigee_km": 569.77900683188,
      "latitude_deg": -1.1680697561913587e-05,
      "longitude_deg": 112.82205316027095,
      "height_km": 574.4487596674278,
      "semi_major_axis_km": 6950.18385182273,
      "eccentricity": 0.0003263,
      "inclination_deg": 70.0,
      "raan_deg": 99.4962,
      "arg_perigee_deg": 270.6519,
      "mean_anomaly_deg": 89.4266,
      "mean_motion_rev_day": 14.98332923
    },
    {
      "epoch": "2026-04-17T16:00:01.999584Z",
      "apogee_km": 574.2353431575993,
      "perigee_km": 569.796141597988,
      "latitude_deg": 17.516689296799452,
      "longitude_deg": 17.04406243994767,
      "height_km": 574.4612868247211,
      "semi_major_axis_km": 6950.152742377793,
      "eccentricity": 0.00031936,
      "inclination_deg": 69.9998,
      "raan_deg": 96.2888,
      "arg_perigee_deg": 272.4338,
      "mean_anomaly_deg": 106.2118,
      "mean_motion_rev_day": 14.98342983
    },
    {
      "epoch": "2026-04-18T15:57:05.041152Z",
      "apogee_km": 574.2839467529548,
      "perigee_km": 569.7329914997708,
      "latitude_deg": -1.249833838304162e-05,
      "longitude_deg": 7.720002931034546,
      "height_km": 574.2452094592032,
      "semi_major_axis_km": 6950.1454691263625,
      "eccentricity": 0.0003274,
      "inclination_deg": 70.0002,
      "raan_deg": 93.7714,
      "arg_perigee_deg": 274.8143,
      "mean_anomaly_deg": 85.2642,
      "mean_motion_rev_day": 14.98345335
    },
    {
      "epoch": "2026-04-19T15:59:05.988192Z",
      "apogee_km": 573.8321118386766,
      "perigee_km": 570.2235862490534,
      "latitude_deg": -1.2428091605868333e-05,
      "longitude_deg": 3.7033313848308977,
      "height_km": 574.5645411830945,
      "semi_major_axis_km": 6950.164849043865,
      "eccentricity": 0.0002596,
      "inclination_deg": 70.0022,
      "raan_deg": 91.2457,
      "arg_perigee_deg": 266.5216,
      "mean_anomaly_deg": 93.5646,
      "mean_motion_rev_day": 14.98339068
    },
    {
      "epoch": "2026-04-20T08:00:26.735328Z",
      "apogee_km": 574.015471169093,
      "perigee_km": 570.1023718613624,
      "latitude_deg": 3.776105497939925e-05,
      "longitude_deg": 121.02658418416112,
      "height_km": 574.5449258281202,
      "semi_major_axis_km": 6950.195921515227,
      "eccentricity": 0.00028151,
      "inclination_deg": 70.0018,
      "raan_deg": 89.5634,
      "arg_perigee_deg": 268.2836,
      "mean_anomaly_deg": 91.8001,
      "mean_motion_rev_day": 14.9832902
    },
    {
      "epoch": "2026-04-21T16:03:08.180352Z",
      "apogee_km": 574.2380478074001,
      "perigee_km": 569.8566515933499,
      "latitude_deg": 2.848502798056722e-06,
      "longitude_deg": -4.3295543326475,
      "height_km": 574.7091869157158,
      "semi_major_axis_km": 6950.184349700375,
      "eccentricity": 0.0003152,
      "inclination_deg": 70.0033,
      "raan_deg": 86.196,
      "arg_perigee_deg": 263.8688,
      "mean_anomaly_deg": 96.2112,
      "mean_motion_rev_day": 14.98332762
    },
    {
      "epoch": "2026-04-22T06:28:21.003456Z",
      "apogee_km": 573.7758311330617,
      "perigee_km": 570.3618900143483,
      "latitude_deg": 5.545508694688873e-05,
      "longitude_deg": 137.26001583793214,
      "height_km": 574.8668856099722,
      "semi_major_axis_km": 6950.205860573705,
      "eccentricity": 0.0002456,
      "inclination_deg": 70.0029,
      "raan_deg": 84.6812,
      "arg_perigee_deg": 257.449,
      "mean_anomaly_deg": 102.6395,
      "mean_motion_rev_day": 14.98325806
    },
    {
      "epoch": "2026-04-22T22:29:41.552736Z",
      "apogee_km": 574.1342820591071,
      "perigee_km": 570.0725615566016,
      "latitude_deg": 2.0477490782784794e-05,
      "longitude_deg": -105.41703599465248,
      "height_km": 574.4066318912554,
      "semi_major_axis_km": 6950.240421807854,
      "eccentricity": 0.0002922,
      "inclination_deg": 70.0019,
      "raan_deg": 82.9978,
      "arg_perigee_deg": 273.5079,
      "mean_anomaly_deg": 86.5746,
      "mean_motion_rev_day": 14.9831463
    },
    {
      "epoch": "2026-04-24T20:57:34.632000Z",
      "apogee_km": 574.0121841712835,
      "perigee_km": 570.063094941087,
      "latitude_deg": 4.5508896226449444e-05,
      "longitude_deg": -89.17593249031049,
      "height_km": 574.4293410246672,
      "semi_major_axis_km": 6950.174639556185,
      "eccentricity": 0.0002841,
      "inclination_deg": 70.0013,
      "raan_deg": 78.1183,
      "arg_perigee_deg": 271.0355,
      "mean_anomaly_deg": 89.0479,
      "mean_motion_rev_day": 14.98335902
    },
    {
      "epoch": "2026-04-25T20:59:35.008800Z",
      "apogee_km": 574.068669771691,
      "perigee_km": 569.9194415314678,
      "latitude_deg": 8.193378864651253e-07,
      "longitude_deg": -93.18943705715299,
      "height_km": 574.4382218311559,
      "semi_major_axis_km": 6950.131055651579,
      "eccentricity": 0.0002985,
      "inclination_deg": 70.0008,
      "raan_deg": 75.5934,
      "arg_perigee_deg": 269.5403,
      "mean_anomaly_deg": 90.5414,
      "mean_motion_rev_day": 14.98349996
    },
    {
      "epoch": "2026-04-26T22:37:43.846176Z",
      "apogee_km": 573.9112610404472,
      "perigee_km": 570.1880460501443,
      "latitude_deg": 6.238718206265315e-06,
      "longitude_deg": -121.47298138838016,
      "height_km": 574.6122587650132,
      "semi_major_axis_km": 6950.1866535452955,
      "eccentricity": 0.00026785,
      "inclination_deg": 70.0007,
      "raan_deg": 72.8995,
      "arg_perigee_deg": 265.8287,
      "mean_anomaly_deg": 94.2566,
      "mean_motion_rev_day": 14.98332017
    },
    {
      "epoch": "2026-04-27T19:27:29.345184Z",
      "apogee_km": 574.0456151834805,
      "perigee_km": 570.1034552007195,
      "latitude_deg": -3.568680653024443e-05,
      "longitude_deg": -76.95590423726625,
      "height_km": 574.6778055482182,
      "semi_major_axis_km": 6950.2115351921,
      "eccentricity": 0.0002836,
      "inclination_deg": 70.0011,
      "raan_deg": 70.7116,
      "arg_perigee_deg": 264.8804,
      "mean_anomaly_deg": 95.2031,
      "mean_motion_rev_day": 14.98323971
    },
    {
      "epoch": "2026-04-28T06:40:26.052384Z",
      "apogee_km": 574.0098330191768,
      "perigee_km": 570.1135516322583,
      "latitude_deg": 7.321009369042192e-06,
      "longitude_deg": 113.16911711503337,
      "height_km": 574.6472414920449,
      "semi_major_axis_km": 6950.198692325717,
      "eccentricity": 0.0002803,
      "inclination_deg": 70.0013,
      "raan_deg": 69.5335,
      "arg_perigee_deg": 265.3425,
      "mean_anomaly_deg": 94.7414,
      "mean_motion_rev_day": 14.98328124
    },
    {
      "epoch": "2026-04-29T21:07:39.456192Z",
      "apogee_km": 573.7321879000883,
      "perigee_km": 570.2974228778658,
      "latitude_deg": -1.545173096356547e-05,
      "longitude_deg": -109.25647789065935,
      "height_km": 574.5154285674633,
      "semi_major_axis_km": 6950.151805388977,
      "eccentricity": 0.0002471,
      "inclination_deg": 70.0026,
      "raan_deg": 65.493,
      "arg_perigee_deg": 267.5471,
      "mean_anomaly_deg": 92.5405,
      "mean_motion_rev_day": 14.98343286
    },
    {
      "epoch": "2026-04-30T13:08:59.958816Z",
      "apogee_km": 573.8521052404103,
      "perigee_km": 570.2104950578641,
      "latitude_deg": -9.097002210715851e-06,
      "longitude_deg": 8.06698156396629,
      "height_km": 574.5325103573939,
      "semi_major_axis_km": 6950.1683001491365,
      "eccentricity": 0.00026198,
      "inclination_deg": 70.0024,
      "raan_deg": 63.8099,
      "arg_perigee_deg": 267.6723,
      "mean_anomaly_deg": 92.4136,
      "mean_motion_rev_day": 14.98337952
    },
    {
      "epoch": "2026-05-02T05:12:21.604608Z",
      "apogee_km": 573.8358484220525,
      "perigee_km": 570.2634524837204,
      "latitude_deg": -1.638342121807002e-05,
      "longitude_deg": 121.37404409951121,
      "height_km": 574.7128198508967,
      "semi_major_axis_km": 6950.186650452886,
      "eccentricity": 0.000257,
      "inclination_deg": 70.0026,
      "raan_deg": 59.6022,
      "arg_perigee_deg": 262.4092,
      "mean_anomaly_deg": 97.6775,
      "mean_motion_rev_day": 14.98332018
    }
  ]
}